ZHONGXING-9
1 33051U 08028A   26279.94737172 -.00000265  00000+0  00000+0 0  9998
2 33051   1.0474  83.6221 0008434 150.3744 215.0685  1.00269432 67169
BEIDOU-2 G1
1 36287U 10001A   26279.80972784 -.00000293  00000+0  00000+0 0  9992
2 36287   4.5527  59.9213 0002805 241.5515 146.0006  1.00271465 61299
BEIDOU-2 G3
1 36590U 10024A   26280.00706102 -.00000148  00000+0  00000+0 0  9996
2 36590   4.7773  60.9070 0003690 351.5855  45.3653  1.00270723 59894
BEIDOU-2 IGSO-1
1 36828U 10036A   26256.66970756 -.00000130  00000+0  00000+0 0  9997
2 36828  54.3037 162.1610 0058541 217.4777 320.7749  1.00289463 58981
BEIDOU-2 G4
1 37210U 10057A   26279.84526155 -.00000126  00000+0  00000+0 0  9996
2 37210   3.9196  68.1336 0009179 182.4766 229.2109  1.00272488 58415
BEIDOU-2 IGSO-2
1 37256U 10068A   26279.72830412 -.00000186  00000+0  00000+0 0  9995
2 37256  47.3499 270.4336 0056758 216.5470 254.4806  1.00245553 57918
BEIDOU-2 IGSO-3
1 37384U 11013A   26279.76370788 -.00000187  00000+0  00000+0 0  9998
2 37384  62.5714  39.1105 0034963 185.3813 172.9454  1.00286279 56777
ZHONGXING-10
1 37677U 11026A   26279.88439440 -.00000198  00000+0  00000+0 0  9993
2 37677   1.2570  50.7819 0005887 201.7264  78.9254  0.99025877 56101
BEIDOU-2 IGSO-4
1 37763U 11038A   26277.80031039 -.00000091  00000+0  00000+0 0  9996
2 37763  54.6011 164.6973 0160761 230.7959 359.8140  1.00263730 55740
BEIDOU-2 IGSO-5
1 37948U 11073A   26278.87108508 -.00000167  00000+0  00000+0 0  9998
2 37948  47.4840 270.1604 0116141 224.4511 289.4291  1.00272767 54245
BEIDOU-2 G5
1 38091U 12008A   26279.98232551  .00000043  00000+0  00000+0 0  9998
2 38091   3.8476  68.8667 0007913 233.1453 126.0036  1.00274822 53487
APSTAR-7
1 38107U 12013A   26279.97344977 -.00000119  00000+0  00000+0 0  9992
2 38107   0.0180 187.5051 0002861  17.6107 237.4615  1.00271819 52932
ZHONGXING-2A
1 38352U 12028A   26279.90432781 -.00000308  00000+0  00000+0 0  9994
2 38352   1.7367  82.2566 0002241 178.2534 178.8799  1.00270041 52411
BEIDOU-2 G6
1 38953U 12059A   26279.97279477 -.00000189  00000+0  00000+0 0  9990
2 38953   4.6994  72.2392 0006449 316.7449  60.9183  1.00272685 51031
ZHONGXING-12
1 39017U 12067A   26280.04481506 -.00000224  00000+0  00000+0 0  9999
2 39017   0.0217 121.3453 0002749  77.1073 280.8998  1.00272138 50630
ZHONGXING-11
1 39157U 13020A   26279.54790693 -.00000308  00000+0  00000+0 0  9990
2 39157   0.0432  31.7747 0000504 154.2640 124.3253  1.00269372 49010
FENGYUN 2G
1 40367U 14090A   26279.90458781 -.00000312  00000+0  00000+0 0  9997
2 40367   5.9157  71.4072 0004490 187.3357 182.0008  1.00263487 43121
BEIDOU-3S IGSO-1S
1 40549U 15019A   26277.00113421 -.00000163  00000+0  00000+0 0  9993
2 40549  48.9898 294.1397 0039026 201.4028 334.2533  1.00283571 42165
BEIDOU-3S IGSO-2S
1 40938U 15053A   26279.90398115 -.00000149  00000+0  00000+0 0  9993
2 40938  49.0573 257.4429 0065315 192.5942 347.3505  1.00278684 40477
APSTAR-9
1 40982U 15059A   26279.91299453 -.00000283  00000+0  00000+0 0  9993
2 40982   0.0378 338.7659 0002830 218.4961 288.9836  1.00269356 40233
ZHONGXING-2C
1 41021U 15063A   26279.90536782 -.00000340  00000+0  00000+0 0  9995
2 41021   0.5556  86.0717 0010030 125.8004 233.0704  1.00268793 40092
BEIDOU-2 IGSO-6
1 41434U 16021A   26279.79179601 -.00000170  00000+0  00000+0 0  9999
2 41434  60.3875  36.9385 0062698 228.9406 131.2894  1.00277450 38604
BEIDOU-2 G7
1 41586U 16037A   26279.90684116 -.00000369  00000+0  00000+0 0  9999
2 41586   1.9927  69.6858 0004727 346.6907  36.2264  1.00273189  8014
TIANLIAN 1-04
1 41869U 16072A   26279.84859437  .00000014  00000+0  00000+0 0  9991
2 41869   1.1491  81.7883 0047427  98.6802 317.3486  1.00270523 36425
FENGYUN 4A
1 41882U 16077A   26279.69550093 -.00000373  00000+0  00000+0 0  9999
2 41882   2.5988  78.8436 0008679 168.3897 141.6510  1.00273605 36040
CHINASAT 16 (SJ-13)
1 42662U 17018A   26280.00476521 -.00000369  00000+0  00000+0 0  9997
2 42662   0.0846  88.0862 0007895 146.2893 253.5440  1.00269249 34872
APSTAR-6C
1 43450U 18041A   26279.91775479 -.00000335  00000+0  00000+0 0  9995
2 43450   0.0185 341.9543 0002383 265.3864 232.6408  1.00269008 30937
FENGYUN 2H
1 43491U 18050A   26279.97184144 -.00000143  00000+0  00000+0 0  9996
2 43491   3.3125  77.6528 0003160 156.9070 210.2093  1.00269658 30568
BEIDOU-2 IGSO-7
1 43539U 18057A   26278.59242425 -.00000141  00000+0  00000+0 0  9998
2 43539  55.2115 162.1127 0107638 236.3338 301.6398  1.00270065 30237
BEIDOU-3 G1
1 43683U 18085A   26279.91663454 -.00000123  00000+0  00000+0 0  9995
2 43683   2.6712  94.2019 0004991  28.9601  22.4613  1.00270592 29182
ZHONGXING-2D
1 43920U 19001A   26279.91065451 -.00000354  00000+0  00000+0 0  9997
2 43920   0.0442  34.1549 0001766 261.5267 177.7397  1.00273052 55208
ZHONGXING-6C
1 44067U 19012A   26279.91074118 -.00000352  00000+0  00000+0 0  9990
2 44067   0.0572 296.9299 0012871 127.2244  49.7463  1.00270552 27862
TIANLIAN 2-01
1 44076U 19017A   26279.60289741 -.00000123  00000+0  00000+0 0  9997
2 44076   0.8214  82.2480 0003792 141.2639  85.8185  1.00271317 27768
BEIDOU-3 IGSO-1
1 44204U 19023A   26279.74386314 -.00000222  00000+0  00000+0 0  9996
2 44204  58.8535  36.5102 0028485 224.7215 139.6223  1.00258920  8334
BEIDOU-2 G8
1 44231U 19027A   26279.91351453 -.00000262  00000+0  00000+0 0  9999
2 44231   1.9360  74.1947 0008979 274.4061 140.4027  1.00273505 27206
BEIDOU-3 IGSO-2
1 44337U 19035A   26278.59955218 -.00000147  00000+0  00000+0 0  9999
2 44337  55.2499 157.8917 0038593 210.4040 341.2792  1.00266198 26777
BEIDOU-3 IGSO-3
1 44709U 19073A   26279.40747334 -.00000169  00000+0  00000+0 0  9997
2 44709  54.6157 279.6844 0046502 198.5785 161.2467  1.00256121 25578
BEIDOU-3 G2
1 45344U 20017A   26279.97201477 -.00000155  00000+0  00000+0 0  9993
2 45344   2.6329  48.7676 0002651 160.8945 235.9670  1.00271809 24386
BEIDOU-3 G3
1 45807U 20040A   26279.90675449 -.00000368  00000+0  00000+0 0  9996
2 45807   2.7176  67.3597 0003206 272.7138 112.4334  1.00266655 23191
APSTAR-6D
1 45863U 20045A   26279.34122147 -.00000335  00000+0  00000+0 0  9997
2 45863   0.0454  98.0518 0002839 357.1445 176.6762  1.00267605 22975
FENGYUN 4B
1 48808U 21047A   26279.90562782 -.00000346  00000+0  00000+0 0  9999
2 48808   0.4302  81.0594 0008302 278.6166  86.5744  1.00267558 19698
TIANLIAN 1-05
1 49011U 21063A   26279.95953471  .00000092  00000+0  00000+0 0  9995
2 49011   1.8761  79.5255 0004375 154.3330 143.9799  1.00270295 19199
ZHONGXING-2E
1 49062U 21071A   26279.88530457 -.00000309  00000+0  00000+0 0  9999
2 49062   0.0458 339.7801 0001244 265.5527 187.0038  1.00271187 19154
CHINASAT 9B
1 49125U 21080A   26279.91637337 -.00000329  00000+0  00000+0 0  9990
2 49125   0.0162 136.6727 0003374  70.7636 239.4378  1.00268917 18762
ZHONGXING-1D
1 49505U 21114A   26279.91065451 -.00000353  00000+0  00000+0 0  9999
2 49505   0.0074 347.2986 0001693 275.5905 210.6873  1.00273532 17948
TIANLIAN 2-02
1 50005U 21124A   26279.84746771 -.00000030  00000+0  00000+0 0  9992
2 50005   1.0841  84.1650 0004423 161.2139 246.1888  1.00271500 17748
ZHONGXING-6D
1 52255U 22038A   26279.61040888  .00000000  00000+0  00000+0 0  9993
2 52255   0.0440 221.9360 0002625   5.9617 132.0799  1.00270869 16534
TIANLIAN 2-03
1 53100U 22078A   26279.88699440  .00000056  00000+0  00000+0 0  9991
2 53100   0.9505  77.7992 0002070 162.4481 105.2020  1.00272329 15660
ZHONGXING-1E
1 53813U 22112A   26279.99327030  .00000000  00000+0  00000+0 0  9995
2 53813   0.0100  77.9473 0003865 191.5748 185.1042  1.00267817 14971
ZHONGXING-19
1 54230U 22148A   26279.91724120 -.00000099  00000+0  00000+0 0  9990
2 54230   0.0197 243.2583 0005005 312.5288 313.1752  1.00271572 14506
APSTAR-6E
1 55239U 23005A   26279.98267481 -.00000335  00000+0  00000+0 0  9995
2 55239   0.0251 233.3071 0004124 352.4225 277.6936  1.00268073 19824
ZHONGXING-26
1 55686U 23023A   26279.81786847 -.00000371  00000+0  00000+0 0  9995
2 55686   0.0617  62.5848 0001655  66.9125 305.4910  1.00271062 13347
BEIDOU-3 G4
1 56564U 23066A   26279.91264785 -.00000298  00000+0  00000+0 0  9999
2 56564   0.4466   4.4779 0005747 209.2874 270.4418  1.00271835 12516
ZHONGXING-6E
1 58253U 23172A   26279.90779450 -.00000379  00000+0  00000+0 0  9993
2 58253   0.0108 175.0457 0002400  14.7260 268.1390  1.00272467 10772
ZHONGXING-3A
1 60179U 24122A   26279.78106503  .00000000  00000+0  00000+0 0  9998
2 60179   0.0223  89.1354 0002617 134.5438 174.5110  1.00269094  8420
ZHONGXING-4A
1 60606U 24151A   26279.92524769 -.00000382  00000+0  00000+0 0  9993
2 60606   1.0323 269.8724 0001517  22.2453 174.7920  1.00269360  7878
ZHONGXING-10R
1 63075U 25036A   26279.97156836 -.00000369  00000+0  00000+0 0  9995
2 63075   0.0297 228.5559 0004898 316.1216 291.2531  1.00273143  6084
TIANLIAN 2-04
1 63361U 25062A   26280.00759851 -.00000161  00000+0  00000+0 0  9994
2 63361   4.0940 272.9073 0033999   8.4591 177.0937  1.00272250  5725
TIANLIAN 2-05
1 63662U 25084A   26279.90910509  .00000099  00000+0  00000+0 0  9997
2 63662   4.1751 278.6488 0000584 280.9558 163.5756  1.00271152  5502
CHINASAT 3B
1 64062U 25106A   26279.91793454  .00000000  00000+0  00000+0 0  9998
2 64062   0.0216  96.5914 0002777 117.6201 299.0955  1.00269871  5181
CHINASAT 9C
1 64470U 25132A   26279.94737238 -.00000264  00000+0  00000+0 0  9994
2 64470   0.0161 223.2773 0003083 332.5880 253.0137  1.00269984  5263
FENGYUN 4C
1 67246U 25312A   26279.91789197 -.00000340  00000+0  00000+0 0  9991
2 67246   0.0165  15.8455 0001028 285.7522 177.4353  1.00270655  2995
ZHONGXING-5
1 14985U 84049A   26279.70319846 -.00000109  00000+0  00000+0 0  9995
2 14985  14.3084 347.4606 0012843 242.5092 119.0132  0.99976207132429
ZHONGXING-5R
1 15385U 84114A   26276.89239463 -.00000090  00000+0  00000+0 0  9995
2 15385  14.6405 351.1790 0005755  99.0457 248.5073  0.99764843128051
FENGYUN 2B
1 26382U 00032A   26278.26270824 -.00000107  00000+0  00000+0 0  9999
2 26382  13.3781  16.0667 0003402 285.7368  64.2003  1.00069606 96020
FENGYUN 2B AKM
1 26460U 00032C   26276.63895558 -.00000380  00000+0  00000+0 0  9995
2 26460  14.4804   5.3816 0021685  44.8000 315.3871  1.00167740123271
ZHONGXING-22A
1 29398U 06038A   26279.80031207 -.00000309  00000+0  00000+0 0  9996
2 29398  11.6914  36.3901 0004238 169.9825 200.2330  1.00073342 73509
FENGYUN 2D DEB
1 33458U 06053D   26279.86439221 -.00000053  00000+0  00000+0 0  9995
2 33458  11.8609  36.1903 0023038  24.0112 335.0175  1.00294539 66490
ZHONGXING-6A
1 37150U 10042A   26279.77757461 -.00000085  00000+0  00000+0 0  9995
2 37150   4.5079  75.7663 0002911 182.2723 215.2947  0.99705573 58991
ZHONGXING-1A
1 37804U 11047A   26280.00851213  .00000136  00000+0  00000+0 0  9991
2 37804   4.0004  76.8911 0002076 216.6341 124.9119  1.00029131 28444
ZHONGXING-9A
1 42763U 17035A   26279.88039986 -.00000191  00000+0  00000+0 0  9995
2 42763   5.2650  73.7854 0001029 227.6780 127.3662  0.99778720 34766
FENGYUN 2A DEB
1 43355U 97029D   26278.66110536 -.00000350  00000+0  00000+0 0  9997
2 43355  14.8540 356.0855 0044240  40.7066 319.6353  1.00251564 43712
